KUIPER-00008            
1 63724U 25088A   25248.87618623  .00007903  00000+0  66507-3 0  9992
2 63724  51.8898 209.6111 0010718 193.4995 166.5691 14.99017706 20336
KUIPER-00009            
1 63725U 25088B   25248.61644273  .00003215  00000+0  45055-3 0  9992
2 63725  51.9011 204.9966 0012178 208.2518 151.7785 14.79914277 20370
KUIPER-00010            
1 63726U 25088C   25248.27012116 -.00183526  00000+0 -51818-2 0  9999
2 63726  51.8629 194.1650 0010165 204.1982 155.8528 15.36462499 20119
KUIPER-00011            
1 63727U 25088D   25248.91667824 -.01191114  00000+0 -60588-1 0  9999
2 63727  51.8683 192.5934 0009807 208.9110   9.2686 15.19214728  5899
KUIPER-00012            
1 63728U 25088E   25248.91667824 -.00260240  00000+0 -82046-2 0  9990
2 63728  51.8580 191.3578 0009784 209.3000 285.8339 15.33350766  4743
KUIPER-00013            
1 63729U 25088F   25248.61515112  .00042957  00000+0  56332-2 0  9990
2 63729  51.9018 206.4665 0009650 139.1948 220.9739 14.79865675 20166
KUIPER-00014            
1 63730U 25088G   25248.61344359  .00000507  00000+0  95637-4 0  9993
2 63730  51.9017 207.4382 0008313 200.4835 159.5795 14.79951249 19964
KUIPER-00015            
1 63731U 25088H   25248.89752116  .00001765  00000+0  25260-3 0  9999
2 63731  51.8985 218.3250 0010318 184.8611 175.2253 14.81286266 20293
